$$SOE
2460161.500000000, A.D. 2023-Aug-05 00:00:00.0000, -1.547943041547824E+08, 3.926785157326220E+08, 6.255404418914740E+07,
2460168.500000000, A.D. 2023-Aug-12 00:00:00.0000, -1.635679813446707E+08, 3.875270064666373E+08, 6.192776387919413E+07,
2460175.500000000, A.D. 2023-Aug-19 00:00:00.0000, -1.722383486460430E+08, 3.821307060462102E+08, 6.126236521560404E+07,
2460182.500000000, A.D. 2023-Aug-26 00:00:00.0000, -1.807987261056133E+08, 3.764903461228369E+08, 6.055783989407554E+07,
2460189.500000000, A.D. 2023-Sep-02 00:00:00.0000, -1.892423409737056E+08, 3.706068033824615E+08, 5.981420005822183E+07,
2460196.500000000, A.D. 2023-Sep-09 00:00:00.0000, -1.975623276870524E+08, 3.644811064450721E+08, 5.903147935311566E+07,
2460203.500000000, A.D. 2023-Sep-16 00:00:00.0000, -2.057517279390114E+08, 3.581144429104725E+08, 5.820973400034186E+07,
2460210.500000000, A.D. 2023-Sep-23 00:00:00.0000, -2.138034904486513E+08, 3.515081668408654E+08, 5.734904388099480E+07,
2460217.500000000, A.D. 2023-Sep-30 00:00:00.0000, -2.217104707990117E+08, 3.446638078742273E+08, 5.644951375633483E+07,
2460224.500000000, A.D. 2023-Oct-07 00:00:00.0000, -2.294654337311891E+08, 3.375830814297059E+08, 5.551127479899764E+07,
2460231.500000000, A.D. 2023-Oct-14 00:00:00.0000, -2.370610568857761E+08, 3.302678966927224E+08, 5.453448606920534E+07,
2460238.500000000, A.D. 2023-Oct-21 00:00:00.0000, -2.444899327977858E+08, 3.227203639765965E+08, 5.351933577082431E+07,
2460245.500000000, A.D. 2023-Oct-28 00:00:00.0000, -2.517445706114873E+08, 3.149428037171845E+08, 5.246604260348560E+07,
2460252.500000000, A.D. 2023-Nov-04 00:00:00.0000, -2.588173988073371E+08, 3.069377563274713E+08, 5.137485726312079E+07,
2460259.500000000, A.D. 2023-Nov-11 00:00:00.0000, -2.657007688058372E+08, 2.987079923047863E+08, 5.024606402542102E+07,
2460266.500000000, A.D. 2023-Nov-18 00:00:00.0000, -2.723869592736616E+08, 2.902565225152655E+08, 4.907998238614289E+07,
2460273.500000000, A.D. 2023-Nov-25 00:00:00.0000, -2.788681811056464E+08, 2.815866086640223E+08, 4.787696875209588E+07,
2460280.500000000, A.D. 2023-Dec-02 00:00:00.0000, -2.851365831014224E+08, 2.727017739212714E+08, 4.663741817700624E+07,
2460287.500000000, A.D. 2023-Dec-09 00:00:00.0000, -2.911842583066204E+08, 2.636058136206418E+08, 4.536176612693311E+07,
2460294.500000000, A.D. 2023-Dec-16 00:00:00.0000, -2.970032507814258E+08, 2.543028060102536E+08, 4.405049024577995E+07,
2460301.500000000, A.D. 2023-Dec-23 00:00:00.0000, -3.025855625030729E+08, 2.447971237061142E+08, 4.270411214082927E+07,
2460308.500000000, A.D. 2023-Dec-30 00:00:00.0000, -3.079231618033446E+08, 2.350934468562233E+08, 4.132319939277887E+07,
2460315.500000000, A.D. 2024-Jan-06 00:00:00.0000, -3.130079951772001E+08, 2.251967756136869E+08, 3.990836775536437E+07,
2460322.500000000, A.D. 2024-Jan-13 00:00:00.0000, -3.178319993472474E+08, 2.151124400657604E+08, 3.846028309954263E+07,
2460329.500000000, A.D. 2024-Jan-20 00:00:00.0000, -3.223871124143640E+08, 2.048461106435257E+08, 3.697966323366244E+07,
2460336.500000000, A.D. 2024-Jan-27 00:00:00.0000, -3.266652861821536E+08, 1.944038095972224E+08, 3.546727982968006E+07,
2460343.500000000, A.D. 2024-Feb-03 00:00:00.0000, -3.306585001407565E+08, 1.837919225166546E+08, 3.392396040665333E+07,
2460350.500000000, A.D. 2024-Feb-10 00:00:00.0000, -3.343587768843984E+08, 1.730172095234135E+08, 3.235059031003372E+07,
2460357.500000000, A.D. 2024-Feb-17 00:00:00.0000, -3.377581988720280E+08, 1.620868160500095E+08, 3.074811466083273E+07,
2460364.500000000, A.D. 2024-Feb-24 00:00:00.0000, -3.408489265388554E+08, 1.510082831179897E+08, 2.911754025710817E+07,
2460371.500000000, A.D. 2024-Mar-02 00:00:00.0000, -3.436232177673814E+08, 1.397895569694619E+08, 2.745993740528102E+07,
2460378.500000000, A.D. 2024-Mar-09 00:00:00.0000, -3.460734486102154E+08, 1.284389978651074E+08, 2.577644164468385E+07,
2460385.500000000, A.D. 2024-Mar-16 00:00:00.0000, -3.481921348928761E+08, 1.169653881107592E+08, 2.406825532508505E+07,
2460392.500000000, A.D. 2024-Mar-23 00:00:00.0000, -3.499719548153494E+08, 1.053779402756561E+08, 2.233664911595723E+07,
2460399.500000000, A.D. 2024-Mar-30 00:00:00.0000, -3.514057748008590E+08, 9.368630542021793E+07, 2.058296362825272E+07,
2460406.500000000, A.D. 2024-Apr-06 00:00:00.0000, -3.524866783338393E+08, 8.190057780489367E+07, 1.880861082600620E+07,
2460413.500000000, A.D. 2024-Apr-13 00:00:00.0000, -3.532079942137184E+08, 7.003129675071236E+07, 1.701507494471068E+07,
2460420.500000000, A.D. 2024-Apr-20 00:00:00.0000, -3.535633251309639E+08, 5.808944815054987E+07, 1.520391319494124E+07,
2460427.500000000, A.D. 2024-Apr-27 00:00:00.0000, -3.535465780229830E+08, 4.608646488284990E+07, 1.337675631529571E+07,
2460434.500000000, A.D. 2024-May-04 00:00:00.0000, -3.531519960449675E+08, 3.403422523627993E+07, 1.153530887878747E+07,
2460441.500000000, A.D. 2024-May-11 00:00:00.0000, -3.523741918145154E+08, 2.194504905384756E+07, 9.681349291376963E+06,
2460448.500000000, A.D. 2024-May-18 00:00:00.0000, -3.512081817187961E+08, 9.831691426575474E+06, 7.816729445272537E+06,
2460455.500000000, A.D. 2024-May-25 00:00:00.0000, -3.496494211043733E+08, -2.292666260538473E+06, 5.943373992478046E+06,
2460462.500000000, A.D. 2024-Jun-01 00:00:00.0000, -3.476938401077707E+08, -1.441442817258142E+07, 4.063279197149107E+06,
2460469.500000000, A.D. 2024-Jun-08 00:00:00.0000, -3.453378796700958E+08, -2.651959895756599E+07, 2.178511311961974E+06,
2460476.500000000, A.D. 2024-Jun-15 00:00:00.0000, -3.425785270964049E+08, -3.859380138582522E+07, 2.912044575859103E+05,
2460483.500000000, A.D. 2024-Jun-22 00:00:00.0000, -3.394133518952264E+08, -5.062229566722384E+07, -1.596441833217323E+06,
2460490.500000000, A.D. 2024-Jun-29 00:00:00.0000, -3.358405437231221E+08, -6.259000239370396E+07, -3.482165385250960E+06,
2460497.500000000, A.D. 2024-Jul-06 00:00:00.0000, -3.318589494696456E+08, -7.448153167856625E+07, -5.363644929849472E+06,
2460504.500000000, A.D. 2024-Jul-13 00:00:00.0000, -3.274681071861461E+08, -8.628121573386721E+07, -7.238504397595767E+06,
2460511.500000000, A.D. 2024-Jul-20 00:00:00.0000, -3.226682784668528E+08, -9.797314376722664E+07, -9.104317689806633E+06,
2460518.500000000, A.D. 2024-Jul-27 00:00:00.0000, -3.174604795423775E+08, -1.095412001524559E+08, -1.095861395285393E+07,
2460525.500000000, A.D. 2024-Aug-03 00:00:00.0000, -3.118465104085805E+08, -1.209691062009741E+08, -1.279888341120282E+07,
2460532.500000000, A.D. 2024-Aug-10 00:00:00.0000, -3.058289814140527E+08, -1.322404654389142E+08, -1.462258376799667E+07,
2460539.500000000, A.D. 2024-Aug-17 00:00:00.0000, -2.994113368429307E+08, -1.433388122137359E+08, -1.642714716104051E+07,
2460546.500000000, A.D. 2024-Aug-24 00:00:00.0000, -2.925978750499536E+08, -1.542476634411929E+08, -1.820998765506798E+07,
2460553.500000000, A.D. 2024-Aug-31 00:00:00.0000, -2.853937646234443E+08, -1.649505732847453E+08, -1.996850925266101E+07,
2460560.500000000, A.D. 2024-Sep-07 00:00:00.0000, -2.778050558156602E+08, -1.754311903167111E+08, -2.170011440358953E+07,
2460567.500000000, A.D. 2024-Sep-14 00:00:00.0000, -2.698386867858449E+08, -1.856733157917869E+08, -2.340221288645718E+07,
2460574.500000000, A.D. 2024-Sep-21 00:00:00.0000, -2.615024863564488E+08, -1.956609622011637E+08, -2.507223078318283E+07,
2460581.500000000, A.D. 2024-Sep-28 00:00:00.0000, -2.528051734968075E+08, -2.053784148704178E+08, -2.670761969996460E+07,
2460588.500000000, A.D. 2024-Oct-05 00:00:00.0000, -2.437563496536144E+08, -2.148102960883191E+08, -2.830586649942492E+07,
2460595.500000000, A.D. 2024-Oct-12 00:00:00.0000, -2.343664841374915E+08, -2.239416282295819E+08, -2.986450318750730E+07,
2460602.500000000, A.D. 2024-Oct-19 00:00:00.0000, -2.246468942249008E+08, -2.327578955505892E+08, -3.138111672909088E+07,
2460609.500000000, A.D. 2024-Oct-26 00:00:00.0000, -2.146097199827905E+08, -2.412451048482828E+08, -3.285335876192315E+07,
2460616.500000000, A.D. 2024-Nov-02 00:00:00.0000, -2.042678936093328E+08, -2.493898445144218E+08, -3.427895514933047E+07,
2460623.500000000, A.D. 2024-Nov-09 00:00:00.0000, -1.936351033274616E+08, -2.571793413534473E+08, -3.565571528333509E+07,
2460630.500000000, A.D. 2024-Nov-16 00:00:00.0000, -1.827257520213414E+08, -2.646015145653771E+08, -3.698154104565525E+07,
2460637.500000000, A.D. 2024-Nov-23 00:00:00.0000, -1.715549108632963E+08, -2.716450263685802E+08, -3.825443534208016E+07,
2460644.500000000, A.D. 2024-Nov-30 00:00:00.0000, -1.601382680915985E+08, -2.782993287659835E+08, -3.947251014393857E+07,
2460651.500000000, A.D. 2024-Dec-07 00:00:00.0000, -1.484920729579461E+08, -2.845547055423913E+08, -4.063399395783079E+07,
2460658.500000000, A.D. 2024-Dec-14 00:00:00.0000, -1.366330760339119E+08, -2.904023078336585E+08, -4.173723848490869E+07,
2460665.500000000, A.D. 2024-Dec-21 00:00:00.0000, -1.245784687478297E+08, -2.958341841379438E+08, -4.278072429173924E+07,
2460672.500000000, A.D. 2024-Dec-28 00:00:00.0000, -1.123458207754546E+08, -3.008433074413645E+08, -4.376306586040452E+07,
2460679.500000000, A.D. 2025-Jan-04 00:00:00.0000, -9.995301331764105E+07, -3.054235968686401E+08, -4.468301601818444E+07,
2460686.500000000, A.D. 2025-Jan-11 00:00:00.0000, -8.741817073810634E+07, -3.095699320660332E+08, -4.553946941213368E+07,
2460693.500000000, A.D. 2025-Jan-18 00:00:00.0000, -7.475959213708964E+07, -3.132781611835722E+08, -4.633146499950320E+07,
2460700.500000000, A.D. 2025-Jan-25 00:00:00.0000, -6.199568327134372E+07, -3.165451029606723E+08, -4.705818760738477E+07,
2460707.500000000, A.D. 2025-Feb-01 00:00:00.0000, -4.914488926739648E+07, -3.193685430538356E+08, -4.771896858590996E+07,
2460714.500000000, A.D. 2025-Feb-08 00:00:00.0000, -3.622562867685704E+07, -3.217472247718977E+08, -4.831328557567221E+07,
2460721.500000000, A.D. 2025-Feb-15 00:00:00.0000, -2.325622941465601E+07, -3.236808344965753E+08, -4.884076142272232E+07,
$$EOE